OBJECT_NAME,OBJECT_ID,EPOCH,MEAN_MOTION,ECCENTRICITY,INCLINATION,RA_OF_ASC_NODE,ARG_OF_PERICENTER,MEAN_ANOMALY,EPHEMERIS_TYPE,CLASSIFICATION_TYPE,NORAD_CAT_ID,ELEMENT_SET_NO,REV_AT_EPOCH,BSTAR,MEAN_MOTION_DOT,MEAN_MOTION_DDOT
LEMUR-1,2014-033AL,2026-06-05T08:51:40.450752,14.85195828,.0049647,97.7870,306.4384,116.3277,244.3049,0,U,40044,999,64371,.31518E-3,.2706E-4,0
LEMUR-2-GREENBERG,2017-042N,2026-06-05T10:54:08.077824,15.30947383,.0009625,97.3818,337.1368,53.8754,306.3377,0,U,42837,999,48659,.60014E-3,.17915E-3,0
LEMUR-2-ANDIS,2017-042P,2026-06-05T10:40:32.181024,15.34356463,.000917,97.3680,337.2719,53.7295,306.4794,0,U,42838,999,48665,.68644E-3,.22827E-3,0
LEMUR-2-MONSON,2017-042Q,2026-06-05T10:30:23.817888,15.27686603,.0007299,97.4080,337.1100,46.0662,314.1179,0,U,42839,999,48637,.59569E-3,.16073E-3,0
LEMUR-2-PETERG,2017-042S,2026-06-05T11:41:08.846880,15.33398658,.0004191,97.3993,341.5028,39.2276,320.9270,0,U,42841,999,48664,.80093E-3,.25837E-3,0
LEMUR-2-DEMBITZ,2017-042T,2026-06-05T11:02:26.850336,15.29927304,.0007654,97.3826,338.1388,66.5488,293.6556,0,U,42842,999,48655,.59698E-3,.17257E-3,0
LEMUR-2-AMANDA-SVANTE,2021-034B,2026-06-05T00:40:48.727200,15.33541007,.00008915,97.5760,234.0002,268.8607,91.2533,0,U,48269,999,27919,.10583863E-2,.3435E-3,0
LEMUR-2-SPECIAL-K,2021-034F,2026-06-04T17:27:01.451232,15.60998083,.0002667,97.5656,241.7174,238.8592,121.2404,0,U,48273,999,27974,.15811E-2,.13455E-2,0
LEMUR-2-EMBRIONOVIS,2023-084AQ,2026-06-05T08:32:34.243296,15.37240567,.0008582,97.6284,300.1050,5.5296,354.6041,0,U,56970,999,16586,.35012E-3,.12705E-3,0
LEMUR-2-DEVERILL-M-T,2023-100F,2026-06-05T08:10:00.230016,15.39139085,.0007391,99.4476,191.6837,86.6907,273.5178,0,U,57391,999,15942,.61678E-3,.23881E-3,0
LEMUR-2-BASS,2023-174D,2026-06-05T11:18:54.416160,15.42692487,.0006776,97.3843,241.0242,201.0261,159.0708,0,U,58259,999,14355,.40922E-3,.17794E-3,0
LEMUR-2-JK0903EM1407,2023-174CJ,2026-06-04T05:50:17.937888,15.50993821,.0005884,97.3910,245.3579,155.2357,204.9178,0,U,58336,999,14372,.4905583E-3,.28456E-3,0
LEMUR-2-MJR092620,2023-174CN,2026-06-05T11:57:17.203392,15.44429217,.0006891,97.3971,246.3169,152.0728,208.0891,0,U,58340,999,14384,.42412E-3,.19563E-3,0
LEMUR-2-OBA-NI-JESU,2024-022D,2026-06-05T09:29:51.573984,16.03522774,.0004416,97.3760,20.6257,178.9245,181.2045,0,U,58902,999,13143,.12452E-2,.770793E-2,.29383E-3
LEMUR-2-CAEL,2024-022E,2026-06-05T09:28:42.525696,15.40570718,.0009016,97.4098,7.1635,132.5023,227.6986,0,U,58903,999,13052,.41195E-3,.167E-3,0
LEMUR-2-JOHNNYTRUONG,2024-043BA,2026-06-05T16:02:31.077600,15.59585052,.0004372,97.5379,307.6665,211.8335,148.2658,0,U,59146,999,12624,.49113E-3,.39077E-3,0
LEMUR-2-TOMATOKECHUP,2024-149D,2026-06-04T22:10:50.492928,15.35767551,.0000297,97.3797,237.9426,225.0802,135.0417,0,U,60471,999,10028,.36408E-3,.12593E-3,0
LEMUR-2-STELLA,2024-149BT,2026-06-04T04:10:32.423232,15.11514040,.0001851,97.6733,237.5749,101.9080,258.2357,0,U,60533,999,9853,.78866E-3,.13309E-3,0
LEMUR-2-AHMED-ASRAR,2024-149DN,2026-06-05T01:21:02.546208,15.12426387,.00026591,97.6998,240.9433,70.4526,289.6991,0,U,60576,999,9873,.88520212E-3,.15334E-3,0
LEMUR-2-LLOYD,2024-149DP,2026-06-05T12:07:27.305760,15.09002842,.0004184,97.6743,237.6302,172.2075,187.9219,0,U,60577,999,9863,.71583E-3,.11265E-3,0
LEMUR-2-SQUIRRELCOMM,2024-149DQ,2026-06-04T16:57:45.440352,15.07003704,.00067343,97.6704,236.6582,95.7677,264.4318,0,U,60578,999,9852,.54578397E-3,.8118E-4,0
LEMUR-2-SIERRINI,2024-149DR,2026-06-05T11:53:02.662080,15.10690128,.0004761,97.6842,239.0385,200.8426,159.2610,0,U,60579,999,9869,.69504E-3,.11456E-3,0
LEMUR-2-WILSON,2025-009CP,2026-06-05T10:48:06.852384,14.95116769,.0004888,97.7029,235.1214,82.8178,277.3598,0,U,62694,999,7560,.22192E-3,.2377E-4,0
LEMUR-2-STAR-FOX,2025-009CR,2026-06-05T12:06:03.147840,15.02317388,.0002621,97.6940,238.1986,144.3761,215.7639,0,U,62696,999,7580,.69076E-3,.9074E-4,0
LEMUR-2-ARIANNA,2025-009CU,2026-06-05T12:03:26.820000,15.02299720,.0002869,97.6877,237.9804,151.7234,208.4147,0,U,62699,999,7580,.71525E-3,.9394E-4,0
